[
  {
    "OBJECT_NAME": "GOES 1 (SMS-C)",
    "OBJECT_ID": "1975-100A",
    "EPOCH": "2025-05-10T11:17:22.648128",
    "MEAN_MOTION": 1.00259053,
    "ECCENTRICITY": 0.0002795,
    "INCLINATION": 5.6335,
    "RA_OF_ASC_NODE": 282.4669,
    "ARG_OF_PERICENTER": 344.3895,
    "MEAN_ANOMALY": 49.3572,
    "EPHEMERIS_TYPE": 0,
    "CLASSIFICATION_TYPE": "U",
    "NORAD_CAT_ID": 8366,
    "ELEMENT_SET_NO": 999,
    "REV_AT_EPOCH": 18103,
    "BSTAR": 0,
    "MEAN_MOTION_DOT": -2.15e-06,
    "MEAN_MOTION_DDOT": 0
  },
  {
    "OBJECT_NAME": "GOES 2",
    "OBJECT_ID": "1977-048A",
    "EPOCH": "2025-05-10T06:48:38.464128",
    "MEAN_MOTION": 0.99401092,
    "ECCENTRICITY": 0.001245,
    "INCLINATION": 7.3783,
    "RA_OF_ASC_NODE": 296.7398,
    "ARG_OF_PERICENTER": 48.6881,
    "MEAN_ANOMALY": 318.8014,
    "EPHEMERIS_TYPE": 0,
    "CLASSIFICATION_TYPE": "U",
    "NORAD_CAT_ID": 10061,
    "ELEMENT_SET_NO": 999,
    "REV_AT_EPOCH": 4227,
    "BSTAR": 0,
    "MEAN_MOTION_DOT": -2.53e-06,
    "MEAN_MOTION_DDOT": 0
  },
  {
    "OBJECT_NAME": "GOES 3",
    "OBJECT_ID": "1978-062A",
    "EPOCH": "2025-05-10T14:33:16.731360",
    "MEAN_MOTION": 0.99358678,
    "ECCENTRICITY": 2.52e-05,
    "INCLINATION": 7.8129,
    "RA_OF_ASC_NODE": 302.2081,
    "ARG_OF_PERICENTER": 90.0386,
    "MEAN_ANOMALY": 109.2922,
    "EPHEMERIS_TYPE": 0,
    "CLASSIFICATION_TYPE": "U",
    "NORAD_CAT_ID": 10953,
    "ELEMENT_SET_NO": 999,
    "REV_AT_EPOCH": 12453,
    "BSTAR": 0,
    "MEAN_MOTION_DOT": 1.05e-06,
    "MEAN_MOTION_DDOT": 0
  },
  {
    "OBJECT_NAME": "GOES 4",
    "OBJECT_ID": "1980-074A",
    "EPOCH": "2025-05-10T06:22:38.531136",
    "MEAN_MOTION": 0.99233823,
    "ECCENTRICITY": 0.0032861,
    "INCLINATION": 8.8626,
    "RA_OF_ASC_NODE": 305.9868,
    "ARG_OF_PERICENTER": 99.7267,
    "MEAN_ANOMALY": 263.6279,
    "EPHEMERIS_TYPE": 0,
    "CLASSIFICATION_TYPE": "U",
    "NORAD_CAT_ID": 11964,
    "ELEMENT_SET_NO": 999,
    "REV_AT_EPOCH": 12344,
    "BSTAR": 0,
    "MEAN_MOTION_DOT": -2.3e-06,
    "MEAN_MOTION_DDOT": 0
  },
  {
    "OBJECT_NAME": "GOES 5",
    "OBJECT_ID": "1981-049A",
    "EPOCH": "2025-05-10T11:22:57.190656",
    "MEAN_MOTION": 1.0031192,
    "ECCENTRICITY": 0.0001852,
    "INCLINATION": 10.0818,
    "RA_OF_ASC_NODE": 318.3318,
    "ARG_OF_PERICENTER": 321.4402,
    "MEAN_ANOMALY": 44.8857,
    "EPHEMERIS_TYPE": 0,
    "CLASSIFICATION_TYPE": "U",
    "NORAD_CAT_ID": 12472,
    "ELEMENT_SET_NO": 999,
    "REV_AT_EPOCH": 11881,
    "BSTAR": 0,
    "MEAN_MOTION_DOT": -2.69e-06,
    "MEAN_MOTION_DDOT": 0
  },
  {
    "OBJECT_NAME": "GOES 6",
    "OBJECT_ID": "1983-041A",
    "EPOCH": "2025-05-10T07:53:52.364256",
    "MEAN_MOTION": 1.0028184,
    "ECCENTRICITY": 0.0001512,
    "INCLINATION": 10.8352,
    "RA_OF_ASC_NODE": 323.8666,
    "ARG_OF_PERICENTER": 203.761,
    "MEAN_ANOMALY": 103.9149,
    "EPHEMERIS_TYPE": 0,
    "CLASSIFICATION_TYPE": "U",
    "NORAD_CAT_ID": 14050,
    "ELEMENT_SET_NO": 999,
    "REV_AT_EPOCH": 21197,
    "BSTAR": 0,
    "MEAN_MOTION_DOT": -2.68e-06,
    "MEAN_MOTION_DDOT": 0
  },
  {
    "OBJECT_NAME": "GOES 7",
    "OBJECT_ID": "1987-022A",
    "EPOCH": "2025-05-10T14:01:42.542688",
    "MEAN_MOTION": 0.99891875,
    "ECCENTRICITY": 0.0003105,
    "INCLINATION": 13.2937,
    "RA_OF_ASC_NODE": 340.4816,
    "ARG_OF_PERICENTER": 57.1413,
    "MEAN_ANOMALY": 308.582,
    "EPHEMERIS_TYPE": 0,
    "CLASSIFICATION_TYPE": "U",
    "NORAD_CAT_ID": 17561,
    "ELEMENT_SET_NO": 999,
    "REV_AT_EPOCH": 12294,
    "BSTAR": 0,
    "MEAN_MOTION_DOT": -1.29e-06,
    "MEAN_MOTION_DDOT": 0
  },
  {
    "OBJECT_NAME": "GOES 8",
    "OBJECT_ID": "1994-022A",
    "EPOCH": "2025-05-10T14:47:41.853696",
    "MEAN_MOTION": 0.98906835,
    "ECCENTRICITY": 0.0005684,
    "INCLINATION": 14.0853,
    "RA_OF_ASC_NODE": 16.6861,
    "ARG_OF_PERICENTER": 46.0114,
    "MEAN_ANOMALY": 221.5597,
    "EPHEMERIS_TYPE": 0,
    "CLASSIFICATION_TYPE": "U",
    "NORAD_CAT_ID": 23051,
    "ELEMENT_SET_NO": 999,
    "REV_AT_EPOCH": 12014,
    "BSTAR": 0,
    "MEAN_MOTION_DOT": -1.06e-06,
    "MEAN_MOTION_DDOT": 0
  },
  {
    "OBJECT_NAME": "GOES 9",
    "OBJECT_ID": "1995-025A",
    "EPOCH": "2025-05-10T02:40:51.599712",
    "MEAN_MOTION": 0.98797897,
    "ECCENTRICITY": 0.0004557,
    "INCLINATION": 13.6033,
    "RA_OF_ASC_NODE": 17.4315,
    "ARG_OF_PERICENTER": 145.2747,
    "MEAN_ANOMALY": 166.7878,
    "EPHEMERIS_TYPE": 0,
    "CLASSIFICATION_TYPE": "U",
    "NORAD_CAT_ID": 23581,
    "ELEMENT_SET_NO": 999,
    "REV_AT_EPOCH": 10877,
    "BSTAR": 0,
    "MEAN_MOTION_DOT": 4.2e-07,
    "MEAN_MOTION_DDOT": 0
  },
  {
    "OBJECT_NAME": "GOES 10",
    "OBJECT_ID": "1997-019A",
    "EPOCH": "2025-05-10T10:39:52.628832",
    "MEAN_MOTION": 0.99122533,
    "ECCENTRICITY": 0.0028945,
    "INCLINATION": 12.6513,
    "RA_OF_ASC_NODE": 23.9389,
    "ARG_OF_PERICENTER": 228.1406,
    "MEAN_ANOMALY": 23.7163,
    "EPHEMERIS_TYPE": 0,
    "CLASSIFICATION_TYPE": "U",
    "NORAD_CAT_ID": 24786,
    "ELEMENT_SET_NO": 999,
    "REV_AT_EPOCH": 10207,
    "BSTAR": 0,
    "MEAN_MOTION_DOT": 4.4e-07,
    "MEAN_MOTION_DDOT": 0
  },
  {
    "OBJECT_NAME": "GOES 11",
    "OBJECT_ID": "2000-022A",
    "EPOCH": "2025-05-10T13:14:38.695200",
    "MEAN_MOTION": 0.99045666,
    "ECCENTRICITY": 0.0002698,
    "INCLINATION": 10.9492,
    "RA_OF_ASC_NODE": 50.2657,
    "ARG_OF_PERICENTER": 252.0495,
    "MEAN_ANOMALY": 287.7123,
    "EPHEMERIS_TYPE": 0,
    "CLASSIFICATION_TYPE": "U",
    "NORAD_CAT_ID": 26352,
    "ELEMENT_SET_NO": 999,
    "REV_AT_EPOCH": 4848,
    "BSTAR": 0,
    "MEAN_MOTION_DOT": -2.46e-06,
    "MEAN_MOTION_DDOT": 0
  },
  {
    "OBJECT_NAME": "GOES 12",
    "OBJECT_ID": "2001-031A",
    "EPOCH": "2025-05-10T19:16:38.552736",
    "MEAN_MOTION": 0.99134094,
    "ECCENTRICITY": 0.0006629,
    "INCLINATION": 11.4513,
    "RA_OF_ASC_NODE": 40.5849,
    "ARG_OF_PERICENTER": 307.2561,
    "MEAN_ANOMALY": 246.2194,
    "EPHEMERIS_TYPE": 0,
    "CLASSIFICATION_TYPE": "U",
    "NORAD_CAT_ID": 26871,
    "ELEMENT_SET_NO": 999,
    "REV_AT_EPOCH": 8674,
    "BSTAR": 0,
    "MEAN_MOTION_DOT": 4.9e-07,
    "MEAN_MOTION_DDOT": 0
  },
  {
    "OBJECT_NAME": "EWS-G1 (GOES 13)",
    "OBJECT_ID": "2006-018A",
    "EPOCH": "2025-05-10T12:46:11.483040",
    "MEAN_MOTION": 0.98811309,
    "ECCENTRICITY": 0.0063432,
    "INCLINATION": 3.4853,
    "RA_OF_ASC_NODE": 81.3274,
    "ARG_OF_PERICENTER": 265.5528,
    "MEAN_ANOMALY": 111.9861,
    "EPHEMERIS_TYPE": 0,
    "CLASSIFICATION_TYPE": "U",
    "NORAD_CAT_ID": 29155,
    "ELEMENT_SET_NO": 999,
    "REV_AT_EPOCH": 3927,
    "BSTAR": 0,
    "MEAN_MOTION_DOT": 2e-07,
    "MEAN_MOTION_DDOT": 0
  },
  {
    "OBJECT_NAME": "GOES 14",
    "OBJECT_ID": "2009-033A",
    "EPOCH": "2025-05-10T13:49:27.892128",
    "MEAN_MOTION": 1.0027216,
    "ECCENTRICITY": 0.0001144,
    "INCLINATION": 0.639,
    "RA_OF_ASC_NODE": 88.3737,
    "ARG_OF_PERICENTER": 36.5331,
    "MEAN_ANOMALY": 202.6961,
    "EPHEMERIS_TYPE": 0,
    "CLASSIFICATION_TYPE": "U",
    "NORAD_CAT_ID": 35491,
    "ELEMENT_SET_NO": 999,
    "REV_AT_EPOCH": 255,
    "BSTAR": 0,
    "MEAN_MOTION_DOT": -5.5e-07,
    "MEAN_MOTION_DDOT": 0
  },
  {
    "OBJECT_NAME": "EWS-G2 (GOES 15)",
    "OBJECT_ID": "2010-008A",
    "EPOCH": "2025-05-10T14:22:17.219424",
    "MEAN_MOTION": 1.00276823,
    "ECCENTRICITY": 0.0001314,
    "INCLINATION": 0.2323,
    "RA_OF_ASC_NODE": 85.8831,
    "ARG_OF_PERICENTER": 174.1919,
    "MEAN_ANOMALY": 245.7801,
    "EPHEMERIS_TYPE": 0,
    "CLASSIFICATION_TYPE": "U",
    "NORAD_CAT_ID": 36411,
    "ELEMENT_SET_NO": 999,
    "REV_AT_EPOCH": 5560,
    "BSTAR": 0,
    "MEAN_MOTION_DOT": 4.7e-07,
    "MEAN_MOTION_DDOT": 0
  },
  {
    "OBJECT_NAME": "GOES 16",
    "OBJECT_ID": "2016-071A",
    "EPOCH": "2025-05-10T13:51:52.092000",
    "MEAN_MOTION": 1.00127635,
    "ECCENTRICITY": 0.0001234,
    "INCLINATION": 0.0527,
    "RA_OF_ASC_NODE": 268.0938,
    "ARG_OF_PERICENTER": 200.8721,
    "MEAN_ANOMALY": 237.0337,
    "EPHEMERIS_TYPE": 0,
    "CLASSIFICATION_TYPE": "U",
    "NORAD_CAT_ID": 41866,
    "ELEMENT_SET_NO": 999,
    "REV_AT_EPOCH": 3106,
    "BSTAR": 0,
    "MEAN_MOTION_DOT": -1.45e-06,
    "MEAN_MOTION_DDOT": 0
  },
  {
    "OBJECT_NAME": "GOES 17",
    "OBJECT_ID": "2018-022A",
    "EPOCH": "2025-05-10T20:39:00.502272",
    "MEAN_MOTION": 1.00271641,
    "ECCENTRICITY": 0.0002882,
    "INCLINATION": 0.0123,
    "RA_OF_ASC_NODE": 100.7662,
    "ARG_OF_PERICENTER": 355.0025,
    "MEAN_ANOMALY": 338.4771,
    "EPHEMERIS_TYPE": 0,
    "CLASSIFICATION_TYPE": "U",
    "NORAD_CAT_ID": 43226,
    "ELEMENT_SET_NO": 999,
    "REV_AT_EPOCH": 2640,
    "BSTAR": 0,
    "MEAN_MOTION_DOT": -8e-07,
    "MEAN_MOTION_DDOT": 0
  },
  {
    "OBJECT_NAME": "GOES 18",
    "OBJECT_ID": "2022-021A",
    "EPOCH": "2025-05-10T17:04:11.144640",
    "MEAN_MOTION": 1.00273271,
    "ECCENTRICITY": 4.07e-05,
    "INCLINATION": 0.0106,
    "RA_OF_ASC_NODE": 63.5797,
    "ARG_OF_PERICENTER": 37.6935,
    "MEAN_ANOMALY": 246.5325,
    "EPHEMERIS_TYPE": 0,
    "CLASSIFICATION_TYPE": "U",
    "NORAD_CAT_ID": 51850,
    "ELEMENT_SET_NO": 999,
    "REV_AT_EPOCH": 1177,
    "BSTAR": 0,
    "MEAN_MOTION_DOT": 1.09e-06,
    "MEAN_MOTION_DDOT": 0
  },
  {
    "OBJECT_NAME": "GOES 19",
    "OBJECT_ID": "2024-119A",
    "EPOCH": "2025-05-10T19:04:32.107584",
    "MEAN_MOTION": 1.00268819,
    "ECCENTRICITY": 5.13e-05,
    "INCLINATION": 0.0147,
    "RA_OF_ASC_NODE": 83.3443,
    "ARG_OF_PERICENTER": 11.7463,
    "MEAN_ANOMALY": 344.6727,
    "EPHEMERIS_TYPE": 0,
    "CLASSIFICATION_TYPE": "U",
    "NORAD_CAT_ID": 60133,
    "ELEMENT_SET_NO": 999,
    "REV_AT_EPOCH": 327,
    "BSTAR": 0,
    "MEAN_MOTION_DOT": -2.36e-06,
    "MEAN_MOTION_DDOT": 0
  }
]